TRANSIT 16 [?]          
1 02807U 67048A   23116.32645899  .00000182  00000+0  26806-3 0  9996
2 02807  89.6692  25.7514 0021315  21.4253  99.9261 13.50388201752991
TRANSIT 18 [?]          
1 03133U 68012A   23116.70947818  .00000153  00000+0  21652-3 0  9991
2 03133  90.0089 271.8010 0076588  74.7146 297.2630 13.51227651439390
NNSS 19 [?]             
1 04507U 70067A   23116.36192377  .00000276  00000+0  37700-3 0  9991
2 04507  89.9430 237.1568 0172226 197.3751 162.1462 13.50913210592403
NOVA 3 [?]              
1 15362U 84110A   23116.65131667  .00000103  00000+0  22367-3 0  9995
2 15362  90.1073  69.9992 0033942  98.2448  74.7622 13.22872389859914
OSCAR 30 [?]            
1 15935U 85066A   23117.17219286  .00000117  00000+0  19959-3 0  9992
2 15935  90.1788  83.3775 0166469 273.6856  95.5746 13.35814746836353
OSCAR 24 [?]            
1 15936U 85066B   23116.64094887  .00000139  00000+0  24070-3 0  9996
2 15936  90.1791  75.2565 0167165 281.2062 254.7843 13.35673523838123
OSCAR 27 [?]            
1 18361U 87080A   23116.36234584  .00000169  00000+0  26405-3 0  9995
2 18361  90.3473  44.7367 0106326  97.3919 263.9326 13.44624391746368
OSCAR 29 [?]            
1 18362U 87080B   23117.18964594  .00000138  00000+0  21471-3 0  9992
2 18362  90.3488  45.1254 0107687 115.6630  15.4529 13.44203603746308
OSCAR 23 [?]            
1 19070U 88033A   23116.63382757  .00000091  00000+0  16974-3 0  9992
2 19070  90.3235 346.7264 0189108 333.5706  51.0214 13.27569783695001
OSCAR 32 [?]            
1 19071U 88033B   23116.88291128  .00000069  00000+0  12613-3 0  9992
2 19071  90.3236 346.8267 0187073 320.5039  49.2744 13.27747254695144
OSCAR 25 [?]            
1 19419U 88074A   23117.18816973  .00000145  00000+0  23251-3 0  9993
2 19419  90.0152  18.1353 0098145 105.8430  46.1290 13.42354619697790
