[{"OBJECT_NAME":"TRANSIT 16 [?]","OBJECT_ID":"1967-048A","EPOCH":"2023-04-26T07:50:06.056736","MEAN_MOTION":13.50388201,"ECCENTRICITY":0.0021315,"INCLINATION":89.6692,"RA_OF_ASC_NODE":25.7514,"ARG_OF_PERICENTER":21.4253,"MEAN_ANOMALY":99.9261,"EPHEMERIS_TYPE":0,"CLASSIFICATION_TYPE":"U","NORAD_CAT_ID":2807,"ELEMENT_SET_NO":999,"REV_AT_EPOCH":75299,"BSTAR":0.00026806,"MEAN_MOTION_DOT":1.82e-6,"MEAN_MOTION_DDOT":0},{"OBJECT_NAME":"TRANSIT 18 [?]","OBJECT_ID":"1968-012A","EPOCH":"2023-04-26T17:01:38.914752","MEAN_MOTION":13.51227651,"ECCENTRICITY":0.0076588,"INCLINATION":90.0089,"RA_OF_ASC_NODE":271.801,"ARG_OF_PERICENTER":74.7146,"MEAN_ANOMALY":297.263,"EPHEMERIS_TYPE":0,"CLASSIFICATION_TYPE":"U","NORAD_CAT_ID":3133,"ELEMENT_SET_NO":999,"REV_AT_EPOCH":43939,"BSTAR":0.00021652,"MEAN_MOTION_DOT":1.53e-6,"MEAN_MOTION_DDOT":0},{"OBJECT_NAME":"NNSS 19 [?]","OBJECT_ID":"1970-067A","EPOCH":"2023-04-26T08:41:10.213728","MEAN_MOTION":13.5091321,"ECCENTRICITY":0.0172226,"INCLINATION":89.943,"RA_OF_ASC_NODE":237.1568,"ARG_OF_PERICENTER":197.3751,"MEAN_ANOMALY":162.1462,"EPHEMERIS_TYPE":0,"CLASSIFICATION_TYPE":"U","NORAD_CAT_ID":4507,"ELEMENT_SET_NO":999,"REV_AT_EPOCH":59240,"BSTAR":0.000377,"MEAN_MOTION_DOT":2.76e-6,"MEAN_MOTION_DDOT":0},{"OBJECT_NAME":"NOVA 3 [?]","OBJECT_ID":"1984-110A","EPOCH":"2023-04-26T15:37:53.760288","MEAN_MOTION":13.22872389,"ECCENTRICITY":0.0033942,"INCLINATION":90.1073,"RA_OF_ASC_NODE":69.9992,"ARG_OF_PERICENTER":98.2448,"MEAN_ANOMALY":74.7622,"EPHEMERIS_TYPE":0,"CLASSIFICATION_TYPE":"U","NORAD_CAT_ID":15362,"ELEMENT_SET_NO":999,"REV_AT_EPOCH":85991,"BSTAR":0.00022367,"MEAN_MOTION_DOT":1.03e-6,"MEAN_MOTION_DDOT":0},{"OBJECT_NAME":"OSCAR 30 [?]","OBJECT_ID":"1985-066A","EPOCH":"2023-04-27T04:07:57.463104","MEAN_MOTION":13.35814746,"ECCENTRICITY":0.0166469,"INCLINATION":90.1788,"RA_OF_ASC_NODE":83.3775,"ARG_OF_PERICENTER":273.6856,"MEAN_ANOMALY":95.5746,"EPHEMERIS_TYPE":0,"CLASSIFICATION_TYPE":"U","NORAD_CAT_ID":15935,"ELEMENT_SET_NO":999,"REV_AT_EPOCH":83635,"BSTAR":0.00019959,"MEAN_MOTION_DOT":1.17e-6,"MEAN_MOTION_DDOT":0},{"OBJECT_NAME":"OSCAR 24 [?]","OBJECT_ID":"1985-066B","EPOCH":"2023-04-26T15:22:57.982368","MEAN_MOTION":13.35673523,"ECCENTRICITY":0.0167165,"INCLINATION":90.1791,"RA_OF_ASC_NODE":75.2565,"ARG_OF_PERICENTER":281.2062,"MEAN_ANOMALY":254.7843,"EPHEMERIS_TYPE":0,"CLASSIFICATION_TYPE":"U","NORAD_CAT_ID":15936,"ELEMENT_SET_NO":999,"REV_AT_EPOCH":83812,"BSTAR":0.0002407,"MEAN_MOTION_DOT":1.39e-6,"MEAN_MOTION_DDOT":0},{"OBJECT_NAME":"OSCAR 27 [?]","OBJECT_ID":"1987-080A","EPOCH":"2023-04-26T08:41:46.680576","MEAN_MOTION":13.44624391,"ECCENTRICITY":0.0106326,"INCLINATION":90.3473,"RA_OF_ASC_NODE":44.7367,"ARG_OF_PERICENTER":97.3919,"MEAN_ANOMALY":263.9326,"EPHEMERIS_TYPE":0,"CLASSIFICATION_TYPE":"U","NORAD_CAT_ID":18361,"ELEMENT_SET_NO":999,"REV_AT_EPOCH":74636,"BSTAR":0.00026405,"MEAN_MOTION_DOT":1.69e-6,"MEAN_MOTION_DDOT":0},{"OBJECT_NAME":"OSCAR 29 [?]","OBJECT_ID":"1987-080B","EPOCH":"2023-04-27T04:33:05.409216","MEAN_MOTION":13.44203603,"ECCENTRICITY":0.0107687,"INCLINATION":90.3488,"RA_OF_ASC_NODE":45.1254,"ARG_OF_PERICENTER":115.663,"MEAN_ANOMALY":15.4529,"EPHEMERIS_TYPE":0,"CLASSIFICATION_TYPE":"U","NORAD_CAT_ID":18362,"ELEMENT_SET_NO":999,"REV_AT_EPOCH":74630,"BSTAR":0.00021471,"MEAN_MOTION_DOT":1.38e-6,"MEAN_MOTION_DDOT":0},{"OBJECT_NAME":"OSCAR 23 [?]","OBJECT_ID":"1988-033A","EPOCH":"2023-04-26T15:12:42.702048","MEAN_MOTION":13.27569783,"ECCENTRICITY":0.0189108,"INCLINATION":90.3235,"RA_OF_ASC_NODE":346.7264,"ARG_OF_PERICENTER":333.5706,"MEAN_ANOMALY":51.0214,"EPHEMERIS_TYPE":0,"CLASSIFICATION_TYPE":"U","NORAD_CAT_ID":19070,"ELEMENT_SET_NO":999,"REV_AT_EPOCH":69500,"BSTAR":0.00016974,"MEAN_MOTION_DOT":9.1e-7,"MEAN_MOTION_DDOT":0},{"OBJECT_NAME":"OSCAR 32 [?]","OBJECT_ID":"1988-033B","EPOCH":"2023-04-26T21:11:23.534592","MEAN_MOTION":13.27747254,"ECCENTRICITY":0.0187073,"INCLINATION":90.3236,"RA_OF_ASC_NODE":346.8267,"ARG_OF_PERICENTER":320.5039,"MEAN_ANOMALY":49.2744,"EPHEMERIS_TYPE":0,"CLASSIFICATION_TYPE":"U","NORAD_CAT_ID":19071,"ELEMENT_SET_NO":999,"REV_AT_EPOCH":69514,"BSTAR":0.00012613,"MEAN_MOTION_DOT":6.9e-7,"MEAN_MOTION_DDOT":0},{"OBJECT_NAME":"OSCAR 25 [?]","OBJECT_ID":"1988-074A","EPOCH":"2023-04-27T04:30:57.864672","MEAN_MOTION":13.42354619,"ECCENTRICITY":0.0098145,"INCLINATION":90.0152,"RA_OF_ASC_NODE":18.1353,"ARG_OF_PERICENTER":105.843,"MEAN_ANOMALY":46.129,"EPHEMERIS_TYPE":0,"CLASSIFICATION_TYPE":"U","NORAD_CAT_ID":19419,"ELEMENT_SET_NO":999,"REV_AT_EPOCH":69779,"BSTAR":0.00023251,"MEAN_MOTION_DOT":1.45e-6,"MEAN_MOTION_DDOT":0}]
